STARLINK-33941          
1 63765U 25089Q   26068.93732107  .00034474  00000+0  12558-2 0  9999
2 63765  43.0019  43.9862 0002713 287.5994  72.4561 15.27595221 48988
ARCSTONE                
1 64540U 25135N   26068.88991918  .00026427  00000+0  94900-3 0  9995
2 64540  97.4495 185.9194 0004120 166.7863 193.3485 15.28638458 39847
